STARLINK-4592           
1 53634U 22104AY  26068.73629736  .00000263  00000+0  34621-4 0  9995
2 53634  53.2173 223.8196 0001378  92.5072 267.6078 15.08838954196237
LEMUR-2-AHMED-ASRAR     
1 60576U 24149DN  26068.73265438  .00013045  00000+0  79773-3 0  9992
2 60576  97.7021 152.9847 0001633  18.5035 341.6253 15.10376432 85541
